NORAD_CAT_ID,OBJECT_NAME,OBJECT_TYPE,EPOCH,MEAN_MOTION,ECCENTRICITY,INCLINATION,RA_OF_ASC_NODE,ARG_OF_PERICENTER,MEAN_ANOMALY,BSTAR,MEAN_MOTION_DOT,MEAN_MOTION_DDOT,TLE_LINE0,TLE_LINE1,TLE_LINE2,SEMIMAJOR_AXIS,PERIOD,APOGEE,PERIGEE,DECAYED
53167.0,STARLINK-3683,PAYLOAD,2022-12-19 09:56:37,15.0884288,0.0002454,53.2192,29.6177,40.4388,319.6786,8.8941e-05,1.128e-05,0.0,0 STARLINK-3683,1 53167U 22083AM  22353.41432111  .00001128  00000-0  88941-4 0  9995,2 53167  53.2192  29.6177 0002454  40.4388 319.6786 15.08842880 24628,6917.871999999999,95.437,541.434,538.039,0.0
53167.0,STARLINK-3683,PAYLOAD,2022-12-19 19:28:56,15.08831401,0.0002424,53.2189,27.8332,40.4716,319.6456,9.4864e-05,1.221e-05,0.0,0 STARLINK-3683,1 53167U 22083AM  22353.81177011  .00001221  00000-0  94864-4 0  9999,2 53167  53.2189  27.8332 0002424  40.4716 319.6456 15.08831401 24046,6917.906999999997,95.438,541.4490000000002,538.095,0.0
53167.0,STARLINK-3683,PAYLOAD,2022-12-20 01:50:29,15.0882568,0.0002394,53.2179,26.6431,42.7949,317.323,0.00017104,2.434e-05,0.0,0 STARLINK-3683,1 53167U 22083AM  22354.07673425  .00002434  00000-0  17104-3 0  9996,2 53167  53.2179  26.6431 0002394  42.7949 317.3230 15.08825680 24723,6917.924,95.438,541.445,538.133,0.0
53167.0,STARLINK-3683,PAYLOAD,2022-12-20 11:22:48,15.08837291,0.0002432,53.219,24.8598,43.5362,316.5822,0.00020933,3.045e-05,0.0,0 STARLINK-3683,1 53167U 22083AM  22354.47416842  .00003045  00000-0  20933-3 0  9991,2 53167  53.2190  24.8598 0002432  43.5362 316.5822 15.08837291 24146,6917.889,95.438,541.436,538.071,0.0
53167.0,STARLINK-3683,PAYLOAD,2022-12-21 11:13:35,15.08840989,0.0002316,53.219,20.3987,47.358,312.7607,3.7009e-05,3.01e-06,0.0,0 STARLINK-3683,1 53167U 22083AM  22355.46777506  .00000301  00000-0  37009-4 0  9993,2 53167  53.2190  20.3987 0002316  47.3580 312.7607 15.08840989 24938,6917.877,95.437,541.345,538.14,0.0
53167.0,STARLINK-3683,PAYLOAD,2022-12-22 01:32:02,15.08852143,0.0002329,53.2191,17.7231,50.0871,310.0326,0.00018378,2.639e-05,0.0,0 STARLINK-3683,1 53167U 22083AM  22356.06392274  .00002639  00000-0  18378-3 0  9998,2 53167  53.2191  17.7231 0002329  50.0871 310.0326 15.08852143 25024,6917.843000000003,95.437,541.319,538.097,0.0
53167.0,STARLINK-3683,PAYLOAD,2022-12-22 07:53:35,15.0885159,0.0002337,53.2192,16.5336,50.7149,309.405,0.00017555,2.508e-05,0.0,0 STARLINK-3683,1 53167U 22083AM  22356.32888264  .00002508  00000-0  17555-3 0  9997,2 53167  53.2192  16.5336 0002337  50.7149 309.4050 15.08851590 24426,6917.845,95.437,541.327,538.0930000000002,0.0
53167.0,STARLINK-3683,PAYLOAD,2022-12-22 12:39:45,15.08847387,0.0002216,53.2192,15.6409,51.5053,308.6138,9.3974e-05,1.208e-05,0.0,0 STARLINK-3683,1 53167U 22083AM  22356.52760606  .00001208  00000-0  93974-4 0  9994,2 53167  53.2192  15.6409 0002216  51.5053 308.6138 15.08847387 25097,6917.858,95.437,541.256,538.19,0.0
53167.0,STARLINK-3683,PAYLOAD,2022-12-22 23:47:27,15.08839704,0.0002213,53.2192,13.5598,51.7238,308.3953,9.7595e-05,1.265e-05,0.0,0 STARLINK-3683,1 53167U 22083AM  22356.99129084  .00001265  00000-0  97595-4 0  9990,2 53167  53.2192  13.5598 0002213  51.7238 308.3953 15.08839704 25161,6917.880999999999,95.438,541.2769999999998,538.215,0.0
53167.0,STARLINK-3683,PAYLOAD,2022-12-23 07:44:23,15.08831759,0.0002205,53.2193,12.0729,52.3091,307.8101,7.4965e-05,9.05e-06,0.0,0 STARLINK-3683,1 53167U 22083AM  22357.32249741  .00000905  00000-0  74965-4 0  9997,2 53167  53.2193  12.0729 0002205  52.3091 307.8101 15.08831759 25214,6917.906,95.438,541.2959999999998,538.245,0.0
53167.0,STARLINK-3683,PAYLOAD,2022-12-24 04:24:23,15.08850625,0.0002328,53.2205,8.21,50.2232,309.8965,4.7664e-05,4.71e-06,0.0,0 STARLINK-3683,1 53167U 22083AM  22358.18360446  .00000471  00000-0  47664-4 0  9992,2 53167  53.2205   8.2100 0002328  50.2232 309.8965 15.08850625 25345,6917.848000000001,95.437,541.323,538.102,0.0
53167.0,STARLINK-3683,PAYLOAD,2022-12-24 07:35:09,15.08856892,0.0002145,53.2193,7.6135,51.4382,308.6802,6.956100000000001e-05,8.19e-06,0.0,0 STARLINK-3683,1 53167U 22083AM  22358.31607791  .00000819  00000-0  69561-4 0  9990,2 53167  53.2193   7.6135 0002145  51.4382 308.6802 15.08856892 24728,6917.829000000002,95.436,541.178,538.21,0.0
53167.0,STARLINK-3683,PAYLOAD,2022-12-25 01:04:24,15.08842123,0.0002089,53.22,4.3436,47.663,312.4539,9.2235e-05,1.18e-05,0.0,0 STARLINK-3683,1 53167U 22083AM  22359.04472439  .00001180  00000-0  92235-4 0  9996,2 53167  53.2200   4.3436 0002089  47.6630 312.4539 15.08842123 25470,6917.874,95.437,541.184,538.294,0.0
53167.0,STARLINK-3683,PAYLOAD,2022-12-25 07:25:57,15.08836167,0.0002013,53.2193,3.1521,45.5059,314.6097,9.3051e-05,1.193e-05,0.0,0 STARLINK-3683,1 53167U 22083AM  22359.30968831  .00001193  00000-0  93051-4 0  9992,2 53167  53.2193   3.1521 0002013  45.5059 314.6097 15.08836167 25511,6917.892,95.438,541.15,538.365,0.0
53167.0,STARLINK-3683,PAYLOAD,2022-12-25 16:58:16,15.088281900000002,0.0002035,53.2191,1.3689,45.6133,314.5025,3.7287e-05,3.05e-06,0.0,0 STARLINK-3683,1 53167U 22083AM  22359.70713697  .00000305  00000-0  37287-4 0  9997,2 53167  53.2191   1.3689 0002035  45.6133 314.5025 15.08828190 25575,6917.916,95.438,541.189,538.374,0.0
53167.0,STARLINK-3683,PAYLOAD,2022-12-26 00:55:11,15.08839751,0.0001935,53.2189,359.88199999999995,46.2899,313.8253,-6.052e-05,-1.251e-05,0.0,0 STARLINK-3683,1 53167U 22083AM  22360.03833187 -.00001251  00000-0 -60520-4 0  9991,2 53167  53.2189 359.8820 0001935  46.2899 313.8253 15.08839751 25620,6917.880999999999,95.438,541.085,538.408,0.0
53167.0,STARLINK-3683,PAYLOAD,2022-12-26 10:27:30,15.08841836,0.0001985,53.2187,358.098,48.1261,311.99,-3.3237e-05,-8.17e-06,0.0,0 STARLINK-3683,1 53167U 22083AM  22360.43577031 -.00000817  00000-0 -33237-4 0  9990,2 53167  53.2187 358.0980 0001985  48.1261 311.9900 15.08841836 25046,6917.875,95.437,541.113,538.367,0.0
53167.0,STARLINK-3683,PAYLOAD,2022-12-27 08:42:54,15.08838941,0.0002054,53.2194,353.9349,49.8194,310.2978,7.1285e-05,8.46e-06,0.0,0 STARLINK-3683,1 53167U 22083AM  22361.36313084  .00000846  00000-0  71285-4 0  9994,2 53167  53.2194 353.9349 0002054  49.8194 310.2978 15.08838941 25824,6917.884,95.438,541.17,538.328,0.0
53167.0,STARLINK-3683,PAYLOAD,2022-12-27 10:18:16,15.08853082,0.0002079,53.2193,353.63699999999994,50.6829,309.4347,0.00018939,2.728e-05,0.0,0 STARLINK-3683,1 53167U 22083AM  22361.42935795  .00002728  00000-0  18939-3 0  9997,2 53167  53.2193 353.6370 0002079  50.6829 309.4347 15.08853082 25199,6917.84,95.437,541.144,538.2669999999998,0.0
53167.0,STARLINK-3683,PAYLOAD,2022-12-28 00:36:44,15.08853896,0.0002163,53.2197,350.9603,48.5817,311.536,0.00025878,3.834e-05,0.0,0 STARLINK-3683,1 53167U 22083AM  22362.02551606  .00003834  00000-0  25878-3 0  9998,2 53167  53.2197 350.9603 0002163  48.5817 311.5360 15.08853896 25281,6917.8380000000025,95.437,541.1990000000002,538.207,0.0
53167.0,STARLINK-3683,PAYLOAD,2022-12-29 05:13:42,15.08833935,0.000195,53.2186,345.6075,50.198,309.9184,-0.00017365,-3.05e-05,0.0,0 STARLINK-3683,1 53167U 22083AM  22363.21784951 -.00003050  00000-0 -17365-3 0  9995,2 53167  53.2186 345.6075 0001950  50.1980 309.9184 15.08833935 26105,6917.899,95.438,541.113,538.415,0.0
53167.0,STARLINK-3683,PAYLOAD,2022-12-29 08:24:28,15.08832944,0.0001950999999999,53.2184,345.0128,51.1612,308.9554,-0.00015433,-2.743e-05,0.0,0 STARLINK-3683,1 53167U 22083AM  22363.35033083 -.00002743  00000-0 -15433-3 0  9995,2 53167  53.2184 345.0128 0001951  51.1612 308.9554 15.08832944 25489,6917.901999999999,95.438,541.117,538.4169999999998,0.0
53167.0,STARLINK-3683,PAYLOAD,2022-12-30 09:50:38,15.08851994,0.000195,53.2182,340.2559,46.8893,313.2262,0.00037416,5.674e-05,0.0,0 STARLINK-3683,1 53167U 22083AM  22364.41016740  .00005674  00000-0  37416-3 0  9993,2 53167  53.2182 340.2559 0001950  46.8893 313.2262 15.08851994 26283,6917.844,95.437,541.058,538.36,0.0
53167.0,STARLINK-3683,PAYLOAD,2022-12-31 08:06:01,15.08878793,0.0001972,53.2187,336.0933,46.1069,314.0085,0.0005593,8.634e-05,0.0,0 STARLINK-3683,1 53167U 22083AM  22365.33751578  .00008634  00000-0  55930-3 0  9990,2 53167  53.2187 336.0933 0001972  46.1069 314.0085 15.08878793 25781,6917.762,95.435,540.991,538.263,0.0
53167.0,STARLINK-3683,PAYLOAD,2023-01-01 04:46:02,15.08837252,0.0001807,53.2184,332.2271,40.5611,319.5515,-0.00030773,-5.182e-05,0.0,0 STARLINK-3683,1 53167U 22083AM  23001.19863683 -.00005182  00000-0 -30773-3 0  9998,2 53167  53.2184 332.2271 0001807  40.5611 319.5515 15.08837252 26558,6917.889,95.438,541.004,538.504,0.0
53167.0,STARLINK-3683,PAYLOAD,2023-01-01 09:32:12,15.08820179,0.0001911,53.2187,331.3353,46.1785,313.9365,-0.0005175,-8.51e-05,0.0,0 STARLINK-3683,1 53167U 22083AM  23001.39736157 -.00008510  00000-0 -51750-3 0  9991,2 53167  53.2187 331.3353 0001911  46.1785 313.9365 15.08820179 26586,6917.941,95.439,541.128,538.484,0.0
53167.0,STARLINK-3683,PAYLOAD,2023-01-01 14:18:21,15.08818376,0.0001916,53.2185,330.4436,47.7762,312.3393,-6.6881e-05,-1.352e-05,0.0,0 STARLINK-3683,1 53167U 22083AM  23001.59608543 -.00001352  00000-0 -66881-4 0  9999,2 53167  53.2185 330.4436 0001916  47.7762 312.3393 15.08818376 25975,6917.946,95.439,541.137,538.486,0.0
53167.0,STARLINK-3683,PAYLOAD,2023-01-02 14:09:10,15.0882536,0.0001898,53.2184,325.9840000000001,46.9047,313.2104,0.00058122,8.971e-05,0.0,0 STARLINK-3683,1 53167U 22083AM  23002.58970419  .00008971  00000-0  58122-3 0  9993,2 53167  53.2184 325.9840 0001898  46.9047 313.2104 15.08825360 26127,6917.925,95.438,541.1030000000002,538.477,0.0
53167.0,STARLINK-3683,PAYLOAD,2023-01-03 06:03:01,15.08848451,0.0001779,53.2184,323.0101,48.3262,311.7883,0.00083242,0.00012988,0.0,0 STARLINK-3683,1 53167U 22083AM  23003.25210334  .00012988  00000-0  83242-3 0  9995,2 53167  53.2184 323.0101 0001779  48.3262 311.7883 15.08848451 26863,6917.855,95.437,540.95,538.489,0.0
